{"type": "FeatureCollection", "features": [ {"type": "Feature", "properties": {"norad_id": 33799, "name": "COSMOS 2251 DEB", "group": "cosmos-2251-debris", "lat": 34.1019337037904, "lon": 73.17390420081409, "alt_km": 628.5163126789575, "timestamp": "2025-12-22T18:58:53.825351+00:00", "meta": {"OBJECT_NAME": "COSMOS 2251 DEB", "OBJECT_ID": "1993-036AQ", "EPOCH": "2025-12-22T04:22:08.161824", "MEAN_MOTION": 14.79739834, "ECCENTRICITY": 0.00224766, "INCLINATION": 74.0316, "RA_OF_ASC_NODE": 63.1931, "ARG_OF_PERICENTER": 130.6149, "MEAN_ANOMALY": 263.3064, "EPHEMERIS_TYPE": 0, "CLASSIFICATION_TYPE": "U", "NORAD_CAT_ID": 33799, "ELEMENT_SET_NO": 999, "REV_AT_EPOCH": 88951, "BSTAR": 0.0012985005, "MEAN_MOTION_DOT": 9.785e-05, "MEAN_MOTION_DDOT": 0}, "tle": {"line1": "1 33799U 93036AQ  25356.18203891  .00009785  00000+0  12985-2 0  9990", "line2": "2 33799  74.0316  63.1931 0022476 130.6149 263.3064 14.79739834889512"}}, "geometry": {"type": "Point", "coordinates": [73.17390420081409, 34.1019337037904]}}, {"type": "Feature", "properties": {"norad_id": 33805, "name": "COSMOS 2251 DEB", "group": "cosmos-2251-debris", "lat": 70.0477783362405, "lon": 60.13925439486469, "alt_km": 652.1287391676369, "timestamp": "2025-12-22T18:58:53.825361+00:00", "meta": {"OBJECT_NAME": "COSMOS 2251 DEB", "OBJECT_ID": "1993-036AW", "EPOCH": "2025-12-22T05:20:30.333120", "MEAN_MOTION": 14.57875825, "ECCENTRICITY": 0.00599448, "INCLINATION": 74.0312, "RA_OF_ASC_NODE": 293.2909, "ARG_OF_PERICENTER": 119.5169, "MEAN_ANOMALY": 241.1992, "EPHEMERIS_TYPE": 0, "CLASSIFICATION_TYPE": "U", "NORAD_CAT_ID": 33805, "ELEMENT_SET_NO": 999, "REV_AT_EPOCH": 89365, "BSTAR": 0.00021700415, "MEAN_MOTION_DOT": 9.89e-06, "MEAN_MOTION_DDOT": 0}, "tle": {"line1": "1 33805U 93036AW  25356.22257330  .00000989  00000+0  21700-3 0  9993", "line2": "2 33805  74.0312 293.2909 0059944 119.5169 241.1992 14.57875825893656"}}, "geometry": {"type": "Point", "coordinates": [60.13925439486469, 70.0477783362405]}}, {"type": "Feature", "properties": {"norad_id": 33811, "name": "COSMOS 2251 DEB", "group": "cosmos-2251-debris", "lat": -63.897218452612066, "lon": 138.09834759880022, "alt_km": 564.4624500831214, "timestamp": "2025-12-22T18:58:53.825372+00:00", "meta": {"OBJECT_NAME": "COSMOS 2251 DEB", "OBJECT_ID": "1993-036BC", "EPOCH": "2025-12-22T05:38:23.917920", "MEAN_MOTION": 15.05528174, "ECCENTRICITY": 0.00309601, "INCLINATION": 73.8382, "RA_OF_ASC_NODE": 282.9593, "ARG_OF_PERICENTER": 1.9197, "MEAN_ANOMALY": 115.9138, "EPHEMERIS_TYPE": 0, "CLASSIFICATION_TYPE": "U", "NORAD_CAT_ID": 33811, "ELEMENT_SET_NO": 999, "REV_AT_EPOCH": 90161, "BSTAR": 0.001172792, "MEAN_MOTION_DOT": 0.00017062, "MEAN_MOTION_DDOT": 0}, "tle": {"line1": "1 33811U 93036BC  25356.23499905  .00017062  00000+0  11728-2 0  9995", "line2": "2 33811  73.8382 282.9593 0030960   1.9197 115.9138 15.05528174901615"}}, "geometry": {"type": "Point", "coordinates": [138.09834759880022, -63.897218452612066]}}, {"type": "Feature", "properties": {"norad_id": 33815, "name": "COSMOS 2251 DEB", "group": "cosmos-2251-debris", "lat": 70.59199329528842, "lon": -79.3581596857596, "alt_km": 498.0629342482871, "timestamp": "2025-12-22T18:58:53.825382+00:00", "meta": {"OBJECT_NAME": "COSMOS 2251 DEB", "OBJECT_ID": "1993-036BG", "EPOCH": "2025-12-21T21:05:29.445792", "MEAN_MOTION": 15.2031958, "ECCENTRICITY": 0.00022339, "INCLINATION": 73.9522, "RA_OF_ASC_NODE": 157.3523, "ARG_OF_PERICENTER": 317.4488, "MEAN_ANOMALY": 193.2224, "EPHEMERIS_TYPE": 0, "CLASSIFICATION_TYPE": "U", "NORAD_CAT_ID": 33815, "ELEMENT_SET_NO": 999, "REV_AT_EPOCH": 88509, "BSTAR": 0.0076381072, "MEAN_MOTION_DOT": 0.00170041, "MEAN_MOTION_DDOT": 0}, "tle": {"line1": "1 33815U 93036BG  25355.87881303  .00170041  00000+0  76381-2 0  9998", "line2": "2 33815  73.9522 157.3523 0002233 317.4488 193.2224 15.20319580885098"}}, "geometry": {"type": "Point", "coordinates": [-79.3581596857596, 70.59199329528842]}}, {"type": "Feature", "properties": {"norad_id": 33816, "name": "COSMOS 2251 DEB", "group": "cosmos-2251-debris", "lat": 25.879751228829193, "lon": 96.41803082402879, "alt_km": 892.3513889527821, "timestamp": "2025-12-22T18:58:53.825393+00:00", "meta": {"OBJECT_NAME": "COSMOS 2251 DEB", "OBJECT_ID": "1993-036BH", "EPOCH": "2025-12-21T16:47:19.907808", "MEAN_MOTION": 13.81792785, "ECCENTRICITY": 0.02642613, "INCLINATION": 73.8952, "RA_OF_ASC_NODE": 90.2102, "ARG_OF_PERICENTER": 101.3706, "MEAN_ANOMALY": 261.7227, "EPHEMERIS_TYPE": 0, "CLASSIFICATION_TYPE": "U", "NORAD_CAT_ID": 33816, "ELEMENT_SET_NO": 999, "REV_AT_EPOCH": 84797, "BSTAR": 0.00029148726, "MEAN_MOTION_DOT": 3.85e-06, "MEAN_MOTION_DDOT": 0}, "tle": {"line1": "1 33816U 93036BH  25355.69953597  .00000385  00000+0  29149-3 0  9998", "line2": "2 33816  73.8952  90.2102 0264261 101.3706 261.7227 13.81792785847973"}}, "geometry": {"type": "Point", "coordinates": [96.41803082402879, 25.879751228829193]}}, {"type": "Feature", "properties": {"norad_id": 33818, "name": "COSMOS 2251 DEB", "group": "cosmos-2251-debris", "lat": 60.248865808011985, "lon": -64.50681392490338, "alt_km": 503.4052823553884, "timestamp": "2025-12-22T18:58:53.825420+00:00", "meta": {"OBJECT_NAME": "COSMOS 2251 DEB", "OBJECT_ID": "1993-036BK", "EPOCH": "2025-12-22T04:58:01.208352", "MEAN_MOTION": 15.1321841, "ECCENTRICITY": 0.00248395, "INCLINATION": 74.0784, "RA_OF_ASC_NODE": 146.6634, "ARG_OF_PERICENTER": 131.173, "MEAN_ANOMALY": 44.5484, "EPHEMERIS_TYPE": 0, "CLASSIFICATION_TYPE": "U", "NORAD_CAT_ID": 33818, "ELEMENT_SET_NO": 999, "REV_AT_EPOCH": 90005, "BSTAR": 0.0029389608, "MEAN_MOTION_DOT": 0.00052953, "MEAN_MOTION_DDOT": 0}, "tle": {"line1": "1 33818U 93036BK  25356.20695843  .00052953  00000+0  29390-2 0  9990", "line2": "2 33818  74.0784 146.6634 0024839 131.1730  44.5484 15.13218410900056"}}, "geometry": {"type": "Point", "coordinates": [-64.50681392490338, 60.248865808011985]}}, {"type": "Feature", "properties": {"norad_id": 33819, "name": "COSMOS 2251 DEB", "group": "cosmos-2251-debris", "lat": -23.645819285272207, "lon": 18.797185493880527, "alt_km": 847.08001198499, "timestamp": "2025-12-22T18:58:53.825432+00:00", "meta": {"OBJECT_NAME": "COSMOS 2251 DEB", "OBJECT_ID": "1993-036BL", "EPOCH": "2025-12-22T06:51:39.371904", "MEAN_MOTION": 14.32253397, "ECCENTRICITY": 0.00894431, "INCLINATION": 74.1775, "RA_OF_ASC_NODE": 192.5781, "ARG_OF_PERICENTER": 51.0224, "MEAN_ANOMALY": 70.135, "EPHEMERIS_TYPE": 0, "CLASSIFICATION_TYPE": "U", "NORAD_CAT_ID": 33819, "ELEMENT_SET_NO": 999, "REV_AT_EPOCH": 87632, "BSTAR": 0.00050954345, "MEAN_MOTION_DOT": 1.412e-05, "MEAN_MOTION_DDOT": 0}, "tle": {"line1": "1 33819U 93036BL  25356.28587236  .00001412  00000+0  50954-3 0  9990", "line2": "2 33819  74.1775 192.5781 0089443  51.0224  70.1350 14.32253397876323"}}, "geometry": {"type": "Point", "coordinates": [18.797185493880527, -23.645819285272207]}}, {"type": "Feature", "properties": {"norad_id": 33821, "name": "COSMOS 2251 DEB", "group": "cosmos-2251-debris", "lat": 16.175671491956845, "lon": 126.34381918621399, "alt_km": 512.540547336479, "timestamp": "2025-12-22T18:58:53.825442+00:00", "meta": {"OBJECT_NAME": "COSMOS 2251 DEB", "OBJECT_ID": "1993-036BN", "EPOCH": "2025-12-22T01:35:54.086208", "MEAN_MOTION": 15.25856381, "ECCENTRICITY": 0.00499362, "INCLINATION": 74.0305, "RA_OF_ASC_NODE": 123.1108, "ARG_OF_PERICENTER": 153.5473, "MEAN_ANOMALY": 206.8294, "EPHEMERIS_TYPE": 0, "CLASSIFICATION_TYPE": "U", "NORAD_CAT_ID": 33821, "ELEMENT_SET_NO": 999, "REV_AT_EPOCH": 75143, "BSTAR": 0.0013202183, "MEAN_MOTION_DOT": 0.00035171, "MEAN_MOTION_DDOT": 0}, "tle": {"line1": "1 33821U 93036BN  25356.06659822  .00035171  00000+0  13202-2 0  9993", "line2": "2 33821  74.0305 123.1108 0049936 153.5473 206.8294 15.25856381751438"}}, "geometry": {"type": "Point", "coordinates": [126.34381918621399, 16.175671491956845]}}, {"type": "Feature", "properties": {"norad_id": 33822, "name": "COSMOS 2251 DEB", "group": "cosmos-2251-debris", "lat": 54.77733981885758, "lon": -160.19656892587867, "alt_km": 947.7924459124042, "timestamp": "2025-12-22T18:58:53.825453+00:00", "meta": {"OBJECT_NAME": "COSMOS 2251 DEB", "OBJECT_ID": "1993-036BP", "EPOCH": "2025-12-21T22:56:07.338336", "MEAN_MOTION": 14.13113625, "ECCENTRICITY": 0.0152823, "INCLINATION": 74.0677, "RA_OF_ASC_NODE": 177.4121, "ARG_OF_PERICENTER": 221.4815, "MEAN_ANOMALY": 269.8267, "EPHEMERIS_TYPE": 0, "CLASSIFICATION_TYPE": "U", "NORAD_CAT_ID": 33822, "ELEMENT_SET_NO": 999, "REV_AT_EPOCH": 86184, "BSTAR": 0.0013099656, "MEAN_MOTION_DOT": 2.711e-05, "MEAN_MOTION_DDOT": 0}, "tle": {"line1": "1 33822U 93036BP  25355.95564049  .00002711  00000+0  13100-2 0  9998", "line2": "2 33822  74.0677 177.4121 0152823 221.4815 269.8267 14.13113625861842"}}, "geometry": {"type": "Point", "coordinates": [-160.19656892587867, 54.77733981885758]}}, {"type": "Feature", "properties": {"norad_id": 33823, "name": "COSMOS 2251 DEB", "group": "cosmos-2251-debris", "lat": 73.798530641883, "lon": -139.10753807685018, "alt_km": 1037.249137714347, "timestamp": "2025-12-22T18:58:53.825464+00:00", "meta": {"OBJECT_NAME": "COSMOS 2251 DEB", "OBJECT_ID": "1993-036BQ", "EPOCH": "2025-12-22T03:57:47.478240", "MEAN_MOTION": 13.98973061, "ECCENTRICITY": 0.02094255, "INCLINATION": 73.8097, "RA_OF_ASC_NODE": 132.8113, "ARG_OF_PERICENTER": 256.4608, "MEAN_ANOMALY": 283.5667, "EPHEMERIS_TYPE": 0, "CLASSIFICATION_TYPE": "U", "NORAD_CAT_ID": 33823, "ELEMENT_SET_NO": 999, "REV_AT_EPOCH": 85741, "BSTAR": 0.00072782274, "MEAN_MOTION_DOT": 1.242e-05, "MEAN_MOTION_DDOT": 0}, "tle": {"line1": "1 33823U 93036BQ  25356.16513285  .00001242  00000+0  72782-3 0  9999", "line2": "2 33823  73.8097 132.8113 0209425 256.4608 283.5667 13.98973061857416"}}, "geometry": {"type": "Point", "coordinates": [-139.10753807685018, 73.798530641883]}}]}